[
    {
        "Altitude(m)": 605459.050238372,
        "Argument of Periapsis(deg)": 0.0,
        "Eccentricity": 0.0,
        "Inclination(deg)": 60.0,
        "Latitude(deg)": 27.98828361725433,
        "Longitude(deg)": 157.79863128320073,
        "Mean Anomaly(deg)": 32.72730000000001,
        "RAAN(deg)": 240.0,
        "Satellite Name": "Test1 1058",
        "Satellite Number": 1058,
        "Semi-Major Axis(m)": 6980739.136638005,
        "Time(s)": 0
    },
    {
        "Altitude(m)": 605535.8413419364,
        "Argument of Periapsis(deg)": 0.00010418945913296404,
        "Eccentricity": 0.0,
        "Inclination(deg)": 60.0,
        "Latitude(deg)": 28.501412568204444,
        "Longitude(deg)": 158.15557760298313,
        "Mean Anomaly(deg)": 33.34740614546182,
        "RAAN(deg)": 239.99957995086024,
        "Satellite Name": "Test1 1058",
        "Satellite Number": 1058,
        "Semi-Major Axis(m)": 6980739.136638005,
        "Time(s)": 10
    }
]